*******************************************************************************
JPL/HORIZONS                477 Italia (A901 QC)           2023-Sep-04 11:06:34
Rec #:     477 (+COV) Soln.date: 2023-Aug-23_21:09:34   # obs: 4395 (1901-2023)
 
IAU76/J2000 helio. ecliptic osc. elements (au, days, deg., period=Julian yrs):
 
  EPOCH=  2457223.5 ! 2015-Jul-20.00 (TDB)         Residual RMS= .27699
   EC= .1881839864000425   QR= 1.960886276808772   TP= 2456744.9664174695
   OM= 10.69807643438357   W=  322.14722609531     IN= 5.287575270253774
   A= 2.41543187613819     MA= 125.6389519623826   ADIST= 2.869977475467609
   PER= 3.75405            N= .262549916           ANGMOM= .026257265
   DAN= 2.02848            DDN= 2.73651            L= 332.9636229
   B= -3.2417648           MOID= .95358199         TP= 2014-Mar-28.4664174695
 
Asteroid physical parameters (km, seconds, rotational period in hours):
   GM= n.a.                RAD= 11.494             ROTPER= 19.413
   H= 10.29                G= .150                 B-V= .884
                           ALBEDO= .246            STYP= S

ASTEROID comments: 
1: soln ref.= JPL#60, OCC=0
2: source=ORB
*******************************************************************************


*******************************************************************************
Ephemeris / API_USER Mon Sep  4 11:06:34 2023 Pasadena, USA      / Horizons
*******************************************************************************
Target body name: 477 Italia (A901 QC)            {source: JPL#60}
Center body name: Solar System Barycenter (0)     {source: DE441}
Center-site name: BODY CENTER
*******************************************************************************
Start time      : A.D. 2023-Aug-12 00:00:00.0000 TDB
Stop  time      : A.D. 2023-Aug-13 00:00:00.0000 TDB
Step-size       : 2880 minutes
*******************************************************************************
Center geodetic : 0.0, 0.0, 0.0                   {E-lon(deg),Lat(deg),Alt(km)}
Center cylindric: 0.0, 0.0, 0.0                   {E-lon(deg),Dxy(km),Dz(km)}
Center radii    : (undefined)
Small perturbers: Yes                             {source: SB441-N16}
Output units    : KM-S
Calendar mode   : Mixed Julian/Gregorian
Output type     : GEOMETRIC cartesian states
Output format   : 2 (position and velocity)
Reference frame : Ecliptic of J2000.0
*******************************************************************************
Initial IAU76/J2000 heliocentric ecliptic osculating elements (au, days, deg.):
  EPOCH=  2457223.5 ! 2015-Jul-20.00 (TDB)         Residual RMS= .27699        
   EC= .1881839864000425   QR= 1.960886276808772   TP= 2456744.9664174695      
   OM= 10.69807643438357   W=  322.14722609531     IN= 5.287575270253774       
  Equivalent ICRF heliocentric cartesian coordinates (au, au/d):
   X=-1.094972854495327E+00  Y= 2.184062354945658E+00  Z= 1.213889347109060E+00
  VX=-9.351107046495860E-03 VY=-2.391724069436719E-03 VZ=-1.123642476640247E-03
Asteroid physical parameters (km, seconds, rotational period in hours):        
   GM= n.a.                RAD= 11.494             ROTPER= 19.413              
   H= 10.29                G= .150                 B-V= .884                   
                           ALBEDO= .246            STYP= S                     
*******************************************************************************
JDTDB
   X     Y     Z
   VX    VY    VZ
*******************************************************************************
$$SOE
2460168.500000000 = A.D. 2023-Aug-12 00:00:00.0000 TDB 
 X =-3.800012301589458E+08 Y = 2.001411621772485E+08 Z = 2.474350395020278E+07
 VX=-7.510519304017509E+00 VY=-1.391963891586552E+01 VZ=-1.136714895311591E+00
$$EOE
*******************************************************************************
 
TIME

  Barycentric Dynamical Time ("TDB" or T_eph) output was requested. This
continuous coordinate time is equivalent to the relativistic proper time
of a clock at rest in a reference frame co-moving with the solar system
barycenter but outside the system's gravity well. It is the independent
variable in the solar system relativistic equations of motion.

  TDB runs at a uniform rate of one SI second per second and is independent
of irregularities in Earth's rotation.
 
CALENDAR SYSTEM

  Mixed calendar mode was active such that calendar dates after AD 1582-Oct-15
(if any) are in the modern Gregorian system. Dates prior to 1582-Oct-5 (if any)
are in the Julian calendar system, which is automatically extended for dates
prior to its adoption on 45-Jan-1 BC.  The Julian calendar is useful for
matching historical dates. The Gregorian calendar more accurately corresponds
to the Earth's orbital motion and seasons. A "Gregorian-only" calendar mode is
available if such physical events are the primary interest.

REFERENCE FRAME AND COORDINATES

  Ecliptic at the standard reference epoch

    Reference epoch: J2000.0
    X-Y plane: adopted Earth orbital plane at the reference epoch
               Note: IAU76 obliquity of 84381.448 arcseconds wrt ICRF X-Y plane
    X-axis   : ICRF
    Z-axis   : perpendicular to the X-Y plane in the directional (+ or -) sense
               of Earth's north pole at the reference epoch.

  Symbol meaning:

    JDTDB    Julian Day Number, Barycentric Dynamical Time
      X      X-component of position vector (km)
      Y      Y-component of position vector (km)
      Z      Z-component of position vector (km)
      VX     X-component of velocity vector (km/sec)                           
      VY     Y-component of velocity vector (km/sec)                           
      VZ     Z-component of velocity vector (km/sec)                           

ABERRATIONS AND CORRECTIONS

 Geometric state vectors have NO corrections or aberrations applied.

Computations by ...

    Solar System Dynamics Group, Horizons On-Line Ephemeris System
    4800 Oak Grove Drive, Jet Propulsion Laboratory
    Pasadena, CA  91109   USA

    General site: https://ssd.jpl.nasa.gov/
    Mailing list: https://ssd.jpl.nasa.gov/email_list.html
    System news : https://ssd.jpl.nasa.gov/horizons/news.html
    User Guide  : https://ssd.jpl.nasa.gov/horizons/manual.html
    Connect     : browser        https://ssd.jpl.nasa.gov/horizons/app.html#/x
                  API            https://ssd-api.jpl.nasa.gov/doc/horizons.html
                  command-line   telnet ssd.jpl.nasa.gov 6775
                  e-mail/batch   https://ssd.jpl.nasa.gov/ftp/ssd/hrzn_batch.txt
                  scripts        https://ssd.jpl.nasa.gov/ftp/ssd/SCRIPTS
    Author      : Jon.D.Giorgini@jpl.nasa.gov
*******************************************************************************
